PANDORA
1 67395U 80229J   26096.13388889  .00000000  00000-0  37770-3 0    02
2 67395  97.8046  95.9175 0006187  21.9186 248.8756 14.87933162    05
